ONEWEB-0338             
1 49204U 21083U   24047.61096292 -.00000028  00000+0 -10054-3 0  9999
2 49204  87.9137  83.9576 0002139  83.2200 276.9177 13.20770288124402
ONEWEB-0339             
1 49205U 21083V   24047.76540967  .00000149  00000+0  37398-3 0  9991
2 49205  87.8993 129.7221 0001707 103.3904 256.7415 13.13469719119123
ONEWEB-0340             
1 49206U 21083W   24047.79986112 -.00000700  00000+0 -18089-2 0  9991
2 49206  87.9242 144.8918 0001602 113.8070 246.3230 13.18689084117769
ONEWEB-0341             
1 49207U 21083X   24047.80777745  .00000051  00000+0  96043-4 0  9999
2 49207  87.9241 144.9058 0001068  94.9956 265.1298 13.18686492117788
ONEWEB-0342             
1 49208U 21083Y   24047.61727466 -.00000003  00000+0 -39811-4 0  9993
2 49208  87.9128  83.9766 0002056  89.7365 270.4004 13.20770392124378
ONEWEB-0343             
1 49209U 21083Z   24047.72716408 -.00000018  00000+0 -77854-4 0  9995
2 49209  87.9233 144.9356 0001431  93.1022 267.0274 13.18686199117825
ONEWEB-0344             
1 49210U 21083AA  24047.73207702 -.00000028  00000+0 -11060-3 0  9997
2 49210  87.8997 129.7423 0001785 112.8819 247.2499 13.13470906119120
ONEWEB-0345             
1 49211U 21083AB  24047.74952626  .00000360  00000+0  95038-3 0  9995
2 49211  87.8992 129.7177 0001315 116.7879 243.3385 13.13471982119137
